SENTINEL-6              
1 46984U 20086A   24155.17796758 -.00000052  00000+0  40569-4 0  9999
2 46984  66.0413 240.3659 0007869 270.5992  89.4121 12.80928330165155
